[{"OBJECT_NAME":"STARLINK-34916","OBJECT_ID":"2025-192Z","EPOCH":"2026-03-09T22:00:01.999584","MEAN_MOTION":15.30165793,"ECCENTRICITY":7.36e-5,"INCLINATION":53.1597,"RA_OF_ASC_NODE":231.0818,"ARG_OF_PERICENTER":70.1758,"MEAN_ANOMALY":229.316,"EPHEMERIS_TYPE":0,"CLASSIFICATION_TYPE":"U","NORAD_CAT_ID":65427,"ELEMENT_SET_NO":999,"REV_AT_EPOCH":589,"BSTAR":0.002185813,"MEAN_MOTION_DOT":0.00064876,"MEAN_MOTION_DDOT":0},{"OBJECT_NAME":"COSMOS 2251 DEB","OBJECT_ID":"1993-036N","EPOCH":"2026-03-09T20:39:34.848000","MEAN_MOTION":15.17003756,"ECCENTRICITY":0.00564486,"INCLINATION":74.0035,"RA_OF_ASC_NODE":352.1163,"ARG_OF_PERICENTER":60.1769,"MEAN_ANOMALY":300.5022,"EPHEMERIS_TYPE":0,"CLASSIFICATION_TYPE":"U","NORAD_CAT_ID":33765,"ELEMENT_SET_NO":999,"REV_AT_EPOCH":90936,"BSTAR":0.0026022202,"MEAN_MOTION_DOT":0.00053945,"MEAN_MOTION_DDOT":0}]
